0 FENGYUN 1C DEB
1 29923U 99025HV  13283.26956286  .00000557  00000-0  35376-3 0   312
2 29923 099.0449 293.7742 0020475 118.8712 303.5559 14.07965720346185
0 FENGYUN 1C DEB
1 29923U 99025HV  13285.83999021  .00000337  00000-0  22404-3 0   326
2 29923 099.0444 296.3496 0020491 111.9564 011.9519 14.07970098346542
0 FENGYUN 1C DEB
1 29923U 99025HV  13288.02239301  .00000497  00000-0  31803-3 0   339
2 29923 099.0439 298.5361 0020484 106.1133 273.6234 14.07973078346857
0 FENGYUN 1C DEB
1 29923U 99025HV  13290.37432073  .00000532  00000-0  33892-3 0   342
2 29923 099.0440 300.8919 0020431 099.9400 314.4534 14.07974241347180
0 FENGYUN 1C DEB
1 29923U 99025HV  13292.87446911  .00000823  00000-0  50956-3 0   359
2 29923 099.0443 303.3960 0020372 093.2818 026.6597 14.07975148347538
0 FENGYUN 1C DEB
1 29923U 99025HV  13294.98859730  .00000890  00000-0  54875-3 0   369
2 29923 099.0443 305.5137 0020341 087.6087 302.3396 14.07978489347834
